IRIDIUM 116             
1 43072U 17083C   23324.57258155  .00000271  00000+0  89788-4 0  9990
2 43072  86.3979 354.7194 0002203  89.8278 270.3170 14.34220517309496
IRIDIUM 130             
1 43073U 17083D   23324.81994025  .00000275  00000+0  90956-4 0  9994
2 43073  86.3986 354.8000 0002227  95.7353 264.4097 14.34220642309477
IRIDIUM 151             
1 43074U 17083E   23324.58526981  .00000111  00000+0  32468-4 0  9994
2 43074  86.3979 354.7504 0002003  87.9116 272.2309 14.34216845309462
IRIDIUM 134             
1 43075U 17083F   23324.83262830  .00000283  00000+0  94028-4 0  9993
2 43075  86.3982 354.6424 0002362  94.4664 265.6801 14.34214428309464
IRIDIUM 137             
1 43076U 17083G   23324.56623978  .00000272  00000+0  90109-4 0  9992
2 43076  86.3984 354.8279 0002302  84.2018 275.9440 14.34220610309497
IRIDIUM 141             
1 43077U 17083H   23324.55989729  .00000272  00000+0  89932-4 0  9993
2 43077  86.3979 354.7142 0002000  93.6143 266.5282 14.34220485309498
IRIDIUM 153             
1 43078U 17083J   23324.51208050  .00000210  00000+0  68044-4 0  9994
2 43078  86.3944 323.1898 0001898  96.6960 263.4452 14.34218170310599
IRIDIUM 131             
1 43079U 17083K   23324.82629966  .00000272  00000+0  90221-4 0  9992
2 43079  86.3984 354.7261 0002090  94.6626 265.4808 14.34218214309460
